NORAD_CAT_ID,OBJECT_NAME,OBJECT_TYPE,EPOCH,MEAN_MOTION,ECCENTRICITY,INCLINATION,RA_OF_ASC_NODE,ARG_OF_PERICENTER,MEAN_ANOMALY,BSTAR,MEAN_MOTION_DOT,MEAN_MOTION_DDOT,TLE_LINE0,TLE_LINE1,TLE_LINE2,SEMIMAJOR_AXIS,PERIOD,APOGEE,PERIGEE,DECAYED
53628.0,STARLINK-4600,PAYLOAD,2024-08-02 12:49:59,15.08827971,0.0001731,53.2173,336.0554,96.1861,263.9328,8.0597e-05,9.94e-06,0.0,0 STARLINK-4600,1 53628U 22104AS  24215.53471489  .00000994  00000-0  80597-4 0  9993,2 53628  53.2173 336.0554 0001731  96.1861 263.9328 15.08827971106880,6917.917,95.438,540.98,538.585,0.0
53628.0,STARLINK-4600,PAYLOAD,2024-08-02 14:25:22,15.08835586,0.0001411,53.2171,335.7575,100.8372,259.2779,1.4132e-05,-6.3e-07,0.0,0 STARLINK-4600,1 53628U 22104AS  24215.60095164 -.00000063  00000-0  14132-4 0  9993,2 53628  53.2171 335.7575 0001411 100.8372 259.2779 15.08835586107589,6917.894,95.438,540.735,538.783,0.0
53628.0,STARLINK-4600,PAYLOAD,2024-08-03 14:16:09,15.08838431,0.0001599,53.2185,331.2972,96.5633,263.5542,-0.00010835,-2.012e-05,0.0,0 STARLINK-4600,1 53628U 22104AS  24216.59455614 -.00002012  00000-0 -10835-3 0  9994,2 53628  53.2185 331.2972 0001599  96.5633 263.5542 15.08838431107739,6917.885,95.438,540.856,538.644,0.0
53628.0,STARLINK-4600,PAYLOAD,2024-08-04 14:06:56,15.08851889,0.0001278,53.2153,326.8357,89.5546,270.5592,0.00049161,7.547e-05,0.0,0 STARLINK-4600,1 53628U 22104AS  24217.58815160  .00007547  00000-0  49161-3 0  9990,2 53628  53.2153 326.8357 0001278  89.5546 270.5592 15.08851889107881,6917.844,95.437,540.593,538.825,0.0
53628.0,STARLINK-4600,PAYLOAD,2024-08-05 13:57:42,15.08849511,0.0001329,53.2179,322.3766,85.3341,274.7803,0.00032244,4.849e-05,0.0,0 STARLINK-4600,1 53628U 22104AS  24218.58173764  .00004849  00000-0  32244-3 0  9994,2 53628  53.2179 322.3766 0001329  85.3341 274.7803 15.08849511107349,6917.851,95.437,540.636,538.797,0.0
53628.0,STARLINK-4600,PAYLOAD,2024-08-06 05:51:34,15.08845729,0.0001591,53.2182,319.4095,96.2624,263.8549,-0.00023424,-4.015e-05,0.0,0 STARLINK-4600,1 53628U 22104AS  24219.24414491 -.00004015  00000-0 -23424-3 0  9990,2 53628  53.2182 319.4095 0001591  96.2624 263.8549 15.08845729107445,6917.863,95.437,540.829,538.627,0.0
53628.0,STARLINK-4600,PAYLOAD,2024-08-06 13:48:31,15.08836442,0.0001421,53.2184,317.9191,104.2783,255.8366,-0.00016,-2.833e-05,0.0,0 STARLINK-4600,1 53628U 22104AS  24219.57535894 -.00002833  00000-0 -16000-3 0  9995,2 53628  53.2184 317.9191 0001421 104.2783 255.8366 15.08836442107490,6917.891,95.438,540.739,538.773,0.0
53628.0,STARLINK-4600,PAYLOAD,2024-08-07 12:03:53,15.08853269,0.0001618,53.2186,313.7548,114.5855,245.5306,5.4887e-05,5.86e-06,0.0,0 STARLINK-4600,1 53628U 22104AS  24220.50270078  .00000586  00000-0  54887-4 0  9997,2 53628  53.2186 313.7548 0001618 114.5855 245.5306 15.08853269107636,6917.84,95.437,540.824,538.586,0.0
53628.0,STARLINK-4600,PAYLOAD,2024-08-08 13:30:03,15.08859538,0.0001597,53.2169,308.9939,85.3858,274.7316,0.00044175,6.753e-05,0.0,0 STARLINK-4600,1 53628U 22104AS  24221.56253737  .00006753  00000-0  44175-3 0  9997,2 53628  53.2169 308.9939 0001597  85.3858 274.7316 15.08859538108485,6917.821,95.436,540.79,538.581,0.0
53628.0,STARLINK-4600,PAYLOAD,2024-08-09 05:23:55,15.08843794,0.0001781,53.2163,306.0226,75.7559,284.363,-6.3882e-06,-3.9e-06,0.0,0 STARLINK-4600,1 53628U 22104AS  24222.22494480 -.00000390  00000-0 -63882-5 0  9994,2 53628  53.2163 306.0226 0001781  75.7559 284.3630 15.08843794107890,6917.869,95.437,540.966,538.502,0.0
53628.0,STARLINK-4600,PAYLOAD,2024-08-09 13:20:50,15.08847584,0.0001617,53.2165,304.5323,73.5933,286.5237,0.00014599,2.037e-05,0.0,0 STARLINK-4600,1 53628U 22104AS  24222.55614278  .00002037  00000-0  14599-3 0  9996,2 53628  53.2165 304.5323 0001617  73.5933 286.5237 15.08847584108634,6917.857,95.437,540.841,538.604,0.0
53628.0,STARLINK-4600,PAYLOAD,2024-08-09 14:56:13,15.08850763,0.0001675,53.2163,304.2343,65.7141,294.4026,0.00020242,2.936e-05,0.0,0 STARLINK-4600,1 53628U 22104AS  24222.62238212  .00002936  00000-0  20242-3 0  9994,2 53628  53.2163 304.2343 0001675  65.7141 294.4026 15.08850763108647,6917.847,95.437,540.871,538.554,0.0
53628.0,STARLINK-4600,PAYLOAD,2024-08-10 11:36:14,15.08847578,0.0001907,53.2153,300.3746,78.0701,282.0505,0.00033158,4.994e-05,0.0,0 STARLINK-4600,1 53628U 22104AS  24223.48350342  .00004994  00000-0  33158-3 0  9994,2 53628  53.2153 300.3746 0001907  78.0701 282.0505 15.08847578108080,6917.857,95.437,541.041,538.403,0.0
53628.0,STARLINK-4600,PAYLOAD,2024-08-10 14:47:00,15.088623,0.0001554,53.2164,299.773,94.0598,266.0572,0.00072678,0.00011305,0.0,0 STARLINK-4600,1 53628U 22104AS  24223.61597648  .00011305  00000-0  72678-3 0  9995,2 53628  53.2164 299.7730 0001554  94.0598 266.0572 15.08862300108105,6917.812,95.436,540.752,538.602,0.0
53628.0,STARLINK-4600,PAYLOAD,2024-08-11 11:27:02,15.08830242,0.0001459,53.2159,295.9087,95.3798,264.736,9.9704e-05,1.299e-05,0.0,0 STARLINK-4600,1 53628U 22104AS  24224.47711195  .00001299  00000-0  99704-4 0  9996,2 53628  53.2159 295.9087 0001459  95.3798 264.7360 15.08830242108236,6917.91,95.438,540.785,538.766,0.0
53628.0,STARLINK-4600,PAYLOAD,2024-08-12 04:56:15,15.08874727,7.01e-05,53.2153,292.6365,89.3674,270.7399,0.0011371,0.00017873,0.0,0 STARLINK-4600,1 53628U 22104AS  24225.20573285  .00017873  00000-0  11371-2 0  9991,2 53628  53.2153 292.6365 0000701  89.3674 270.7399 15.08874727108345,6917.774,95.435,540.124,539.154,0.0
53628.0,STARLINK-4600,PAYLOAD,2024-08-12 11:17:49,15.08823582,0.0001112,53.2158,291.4468,74.2874,285.824,-0.00022817,-3.916e-05,0.0,0 STARLINK-4600,1 53628U 22104AS  24225.47070713 -.00003916  00000-0 -22817-3 0  9991,2 53628  53.2158 291.4468 0001112  74.2874 285.8240 15.08823582108382,6917.931,95.439,540.565,539.026,0.0
53628.0,STARLINK-4600,PAYLOAD,2024-08-13 03:11:40,15.08869686,0.0001051,53.2159,288.474,76.5151,283.5958,0.00093647,0.00014659,0.0,0 STARLINK-4600,1 53628U 22104AS  24226.13310250  .00014659  00000-0  93647-3 0  9991,2 53628  53.2159 288.4740 0001051  76.5151 283.5958 15.08869686108484,6917.79,95.436,540.382,538.928,0.0
53628.0,STARLINK-4600,PAYLOAD,2024-08-13 11:08:38,15.08740099,0.0001515,53.216,286.9889,96.5907,263.5257,-0.0033341,-0.00052817,0.0,0 STARLINK-4600,1 53628U 22104AS  24226.46432911 -.00052817  00000-0 -33341-2 0  9990,2 53628  53.2160 286.9889 0001515  96.5907 263.5257 15.08740099108531,6918.186,95.444,541.099,539.003,0.0
53628.0,STARLINK-4600,PAYLOAD,2024-08-13 20:40:57,15.08820423,6.28e-05,53.2168,285.2057,99.3971,260.7092,0.0032066,0.00051088,0.0,0 STARLINK-4600,1 53628U 22104AS  24226.86177268  .00051088  00000-0  32066-2 0  9995,2 53628  53.2168 285.2057 0000628  99.3971 260.7092 15.08820423108596,6917.94,95.439,540.24,539.371,0.0
53628.0,STARLINK-4600,PAYLOAD,2024-08-14 03:02:30,15.08834603,0.000126,53.2157,284.0159,113.9677,246.1447,0.0027491,0.00043729,0.0,0 STARLINK-4600,1 53628U 22104AS  24227.12673623  .00043729  00000-0  27491-2 0  9990,2 53628  53.2157 284.0159 0001260 113.9677 246.1447 15.08834603108635,6917.897,95.438,540.634,538.89,0.0
53628.0,STARLINK-4600,PAYLOAD,2024-08-14 10:59:25,15.08859646,0.0001266,53.2166,282.5276,107.4229,252.6902,0.0016741,0.0002647,0.0,0 STARLINK-4600,1 53628U 22104AS  24227.45793279  .00026470  00000-0  16741-2 0  9996,2 53628  53.2166 282.5276 0001266 107.4229 252.6902 15.08859646109379,6917.82,95.436,540.561,538.81,0.0
53628.0,STARLINK-4600,PAYLOAD,2024-08-14 20:31:44,15.08852132,9.34e-05,53.2145,280.7448,90.378,269.7319,0.00061289,9.483e-05,0.0,0 STARLINK-4600,1 53628U 22104AS  24227.85537189  .00009483  00000-0  61289-3 0  9999,2 53628  53.2145 280.7448 0000934  90.3780 269.7319 15.08852132109431,6917.843,95.437,540.354,539.062,0.0
53628.0,STARLINK-4600,PAYLOAD,2024-08-15 09:14:49,15.08846995,0.0001075,53.215,278.3662,80.9944,279.117,0.00019596,2.833e-05,0.0,0 STARLINK-4600,1 53628U 22104AS  24228.38529131  .00002833  00000-0  19596-3 0  9992,2 53628  53.2150 278.3662 0001075  80.9944 279.1170 15.08846995109511,6917.859,95.437,540.468,538.98,0.0
53628.0,STARLINK-4600,PAYLOAD,2024-08-15 20:22:30,15.08853644,0.0001177,53.2153,276.2854,81.6261,278.4865,0.0003156,4.74e-05,0.0,0 STARLINK-4600,1 53628U 22104AS  24228.84896767  .00004740  00000-0  31560-3 0  9999,2 53628  53.2153 276.2854 0001177  81.6261 278.4865 15.08853644108899,6917.839,95.437,540.518,538.889,0.0
53628.0,STARLINK-4600,PAYLOAD,2024-08-16 09:05:35,15.08861008,0.000118,53.2151,273.9063,80.5411,279.5714,0.00037877,5.749e-05,0.0,0 STARLINK-4600,1 53628U 22104AS  24229.37888115  .00005749  00000-0  37877-3 0  9993,2 53628  53.2151 273.9063 0001180  80.5411 279.5714 15.08861008109666,6917.816,95.436,540.497,538.865,0.0
53628.0,STARLINK-4600,PAYLOAD,2024-08-17 02:34:51,15.08828315,0.0001284,53.2145,270.634,85.3806,274.7333,-0.00015679,-2.781e-05,0.0,0 STARLINK-4600,1 53628U 22104AS  24230.10753602 -.00002781  00000-0 -15679-3 0  9999,2 53628  53.2145 270.6340 0001284  85.3806 274.7333 15.08828315109081,6917.916,95.438,540.669,538.893,0.0
53628.0,STARLINK-4600,PAYLOAD,2024-08-17 12:07:09,15.08838156,0.0001492,53.2143,268.8468,104.9996,255.1162,0.00044207,6.754e-05,0.0,0 STARLINK-4600,1 53628U 22104AS  24230.50497678  .00006754  00000-0  44207-3 0  9992,2 53628  53.2143 268.8468 0001492 104.9996 255.1162 15.08838156109838,6917.886,95.438,540.783,538.719,0.0
53628.0,STARLINK-4600,PAYLOAD,2024-08-18 02:25:38,15.08859373,0.0001546,53.2138,266.1704,106.3466,253.7696,0.0013166,0.00020739,0.0,0 STARLINK-4600,1 53628U 22104AS  24231.10113645  .00020739  00000-0  13166-2 0  9996,2 53628  53.2138 266.1704 0001546 106.3466 253.7696 15.08859373109924,6917.821,95.436,540.756,538.617,0.0
53628.0,STARLINK-4600,PAYLOAD,2024-08-18 11:57:56,15.08866625,0.0001555,53.2145,264.3886,81.8329,278.284,0.00095722,0.0001499,0.0,0 STARLINK-4600,1 53628U 22104AS  24231.49857213  .00014990  00000-0  95722-3 0  9995,2 53628  53.2145 264.3886 0001555  81.8329 278.2840 15.08866625109299,6917.799,95.436,540.74,538.588,0.0
